{"fetched_at":"2026-07-17T17:37:51.795Z","source":"https://celestrak.org/NORAD/elements/gp.php?GROUP=kuiper&FORMAT=JSON","constellation":"kuiper","records":[{"OBJECT_NAME":"KUIPER-00549","OBJECT_ID":"2026-140AA","EPOCH":"2026-07-16T13:53:38.389056","CLASSIFICATION_TYPE":"U","MEAN_MOTION":15.37359191,"ECCENTRICITY":0.0007925,"INCLINATION":51.8779,"RA_OF_ASC_NODE":256.7102,"ARG_OF_PERICENTER":19.5782,"MEAN_ANOMALY":340.5507,"EPHEMERIS_TYPE":0,"NORAD_CAT_ID":69616,"ELEMENT_SET_NO":999,"REV_AT_EPOCH":575,"BSTAR":0.00036576,"MEAN_MOTION_DOT":0.00013244,"MEAN_MOTION_DDOT":0},{"OBJECT_NAME":"KUIPER-00550","OBJECT_ID":"2026-140AB","EPOCH":"2026-07-17T06:51:01.612512","CLASSIFICATION_TYPE":"U","MEAN_MOTION":15.31514621,"ECCENTRICITY":0.00084629,"INCLINATION":51.8797,"RA_OF_ASC_NODE":253.9298,"ARG_OF_PERICENTER":63.6836,"MEAN_ANOMALY":296.5017,"EPHEMERIS_TYPE":0,"NORAD_CAT_ID":69617,"ELEMENT_SET_NO":999,"REV_AT_EPOCH":585,"BSTAR":-0.00210769,"MEAN_MOTION_DOT":-0.00064975,"MEAN_MOTION_DDOT":0},{"OBJECT_NAME":"KUIPER-00551","OBJECT_ID":"2026-140AC","EPOCH":"2026-07-16T13:12:05.620320","CLASSIFICATION_TYPE":"U","MEAN_MOTION":15.38269864,"ECCENTRICITY":0.001251,"INCLINATION":51.8779,"RA_OF_ASC_NODE":256.5241,"ARG_OF_PERICENTER":285.0023,"MEAN_ANOMALY":74.9579,"EPHEMERIS_TYPE":0,"NORAD_CAT_ID":69618,"ELEMENT_SET_NO":999,"REV_AT_EPOCH":575,"BSTAR":0.00042958,"MEAN_MOTION_DOT":0.00016131,"MEAN_MOTION_DDOT":0},{"OBJECT_NAME":"KUIPER-00554","OBJECT_ID":"2026-140AD","EPOCH":"2026-07-17T03:22:49.670688","CLASSIFICATION_TYPE":"U","MEAN_MOTION":15.38018775,"ECCENTRICITY":0.00112155,"INCLINATION":51.877,"RA_OF_ASC_NODE":253.7329,"ARG_OF_PERICENTER":300.6753,"MEAN_ANOMALY":59.3128,"EPHEMERIS_TYPE":0,"NORAD_CAT_ID":69619,"ELEMENT_SET_NO":999,"REV_AT_EPOCH":584,"BSTAR":0.00037861576,"MEAN_MOTION_DOT":0.00014041,"MEAN_MOTION_DDOT":0},{"OBJECT_NAME":"KUIPER-00555","OBJECT_ID":"2026-140AE","EPOCH":"2026-07-17T00:00:02.000160","CLASSIFICATION_TYPE":"U","MEAN_MOTION":15.37969251,"ECCENTRICITY":0.00114019,"INCLINATION":51.8806,"RA_OF_ASC_NODE":254.3925,"ARG_OF_PERICENTER":285.853,"MEAN_ANOMALY":28.5865,"EPHEMERIS_TYPE":0,"NORAD_CAT_ID":69620,"ELEMENT_SET_NO":999,"REV_AT_EPOCH":529,"BSTAR":0.0016194619,"MEAN_MOTION_DOT":0.00061659,"MEAN_MOTION_DDOT":0},{"OBJECT_NAME":"KUIPER-00556","OBJECT_ID":"2026-140AF","EPOCH":"2026-07-17T03:16:38.584416","CLASSIFICATION_TYPE":"U","MEAN_MOTION":15.38371238,"ECCENTRICITY":0.00115254,"INCLINATION":51.8785,"RA_OF_ASC_NODE":253.7105,"ARG_OF_PERICENTER":277.0769,"MEAN_ANOMALY":82.8908,"EPHEMERIS_TYPE":0,"NORAD_CAT_ID":69621,"ELEMENT_SET_NO":999,"REV_AT_EPOCH":584,"BSTAR":0.00057332453,"MEAN_MOTION_DOT":0.00021744,"MEAN_MOTION_DDOT":0},{"OBJECT_NAME":"KUIPER-00557","OBJECT_ID":"2026-140AG","EPOCH":"2026-07-17T03:32:09.245472","CLASSIFICATION_TYPE":"U","MEAN_MOTION":15.37514067,"ECCENTRICITY":0.00095662,"INCLINATION":51.8798,"RA_OF_ASC_NODE":253.7806,"ARG_OF_PERICENTER":307.0267,"MEAN_ANOMALY":52.9844,"EPHEMERIS_TYPE":0,"NORAD_CAT_ID":69622,"ELEMENT_SET_NO":999,"REV_AT_EPOCH":584,"BSTAR":-0.000063982126,"MEAN_MOTION_DOT":-0.00002792,"MEAN_MOTION_DDOT":0},{"OBJECT_NAME":"KUIPER-00560","OBJECT_ID":"2026-140AH","EPOCH":"2026-07-17T06:00:02.000160","CLASSIFICATION_TYPE":"U","MEAN_MOTION":15.37035141,"ECCENTRICITY":0.00092179,"INCLINATION":51.8777,"RA_OF_ASC_NODE":253.179,"ARG_OF_PERICENTER":320.0403,"MEAN_ANOMALY":296.8465,"EPHEMERIS_TYPE":0,"NORAD_CAT_ID":69623,"ELEMENT_SET_NO":999,"REV_AT_EPOCH":543,"BSTAR":-0.00031047507,"MEAN_MOTION_DOT":-0.00011819,"MEAN_MOTION_DDOT":0},{"OBJECT_NAME":"KUIPER-00561","OBJECT_ID":"2026-140AJ","EPOCH":"2026-07-16T10:10:25.469760","CLASSIFICATION_TYPE":"U","MEAN_MOTION":15.38751926,"ECCENTRICITY":0.0007665,"INCLINATION":51.8812,"RA_OF_ASC_NODE":257.1893,"ARG_OF_PERICENTER":305.7051,"MEAN_ANOMALY":54.3223,"EPHEMERIS_TYPE":0,"NORAD_CAT_ID":69624,"ELEMENT_SET_NO":999,"REV_AT_EPOCH":573,"BSTAR":0.00033889,"MEAN_MOTION_DOT":0.00012821,"MEAN_MOTION_DDOT":0},{"OBJECT_NAME":"KUIPER-00564","OBJECT_ID":"2026-140AK","EPOCH":"2026-07-17T03:28:22.971648","CLASSIFICATION_TYPE":"U","MEAN_MOTION":15.37236129,"ECCENTRICITY":0.00087057,"INCLINATION":51.8796,"RA_OF_ASC_NODE":253.7609,"ARG_OF_PERICENTER":305.0494,"MEAN_ANOMALY":54.9675,"EPHEMERIS_TYPE":0,"NORAD_CAT_ID":69625,"ELEMENT_SET_NO":999,"REV_AT_EPOCH":584,"BSTAR":0.00025342196,"MEAN_MOTION_DOT":0.00009014,"MEAN_MOTION_DDOT":0},{"OBJECT_NAME":"KUIPER-00567","OBJECT_ID":"2026-140AL","EPOCH":"2026-07-17T00:00:02.000160","CLASSIFICATION_TYPE":"U","MEAN_MOTION":15.38300447,"ECCENTRICITY":0.00129082,"INCLINATION":51.876,"RA_OF_ASC_NODE":254.3334,"ARG_OF_PERICENTER":276.1952,"MEAN_ANOMALY":61.5916,"EPHEMERIS_TYPE":0,"NORAD_CAT_ID":69626,"ELEMENT_SET_NO":999,"REV_AT_EPOCH":580,"BSTAR":0.0012911239,"MEAN_MOTION_DOT":0.00049564,"MEAN_MOTION_DDOT":0},{"OBJECT_NAME":"KUIPER-00573","OBJECT_ID":"2026-140AM","EPOCH":"2026-07-17T03:37:41.997792","CLASSIFICATION_TYPE":"U","MEAN_MOTION":15.37517892,"ECCENTRICITY":0.0009311,"INCLINATION":51.877,"RA_OF_ASC_NODE":253.7966,"ARG_OF_PERICENTER":292.5254,"MEAN_ANOMALY":67.4747,"EPHEMERIS_TYPE":0,"NORAD_CAT_ID":69627,"ELEMENT_SET_NO":999,"REV_AT_EPOCH":584,"BSTAR":0.00039088574,"MEAN_MOTION_DOT":0.00014263,"MEAN_MOTION_DDOT":0},{"OBJECT_NAME":"KUIPER-00258","OBJECT_ID":"2026-151A","EPOCH":"2026-07-17T06:00:02.000160","CLASSIFICATION_TYPE":"U","MEAN_MOTION":15.34767131,"ECCENTRICITY":0.0011043,"INCLINATION":51.8672,"RA_OF_ASC_NODE":170.6537,"ARG_OF_PERICENTER":175.1565,"MEAN_ANOMALY":351.3222,"EPHEMERIS_TYPE":0,"NORAD_CAT_ID":69763,"ELEMENT_SET_NO":999,"REV_AT_EPOCH":269,"BSTAR":0.00014442456,"MEAN_MOTION_DOT":0.00004568,"MEAN_MOTION_DDOT":0},{"OBJECT_NAME":"KUIPER-00526","OBJECT_ID":"2026-151B","EPOCH":"2026-07-17T06:24:51.217344","CLASSIFICATION_TYPE":"U","MEAN_MOTION":15.37347735,"ECCENTRICITY":0.00064056,"INCLINATION":51.8761,"RA_OF_ASC_NODE":170.3724,"ARG_OF_PERICENTER":148.1993,"MEAN_ANOMALY":211.9381,"EPHEMERIS_TYPE":0,"NORAD_CAT_ID":69764,"ELEMENT_SET_NO":999,"REV_AT_EPOCH":233,"BSTAR":0.00031335083,"MEAN_MOTION_DOT":0.00011279,"MEAN_MOTION_DDOT":0},{"OBJECT_NAME":"KUIPER-00558","OBJECT_ID":"2026-151C","EPOCH":"2026-07-17T06:00:02.000160","CLASSIFICATION_TYPE":"U","MEAN_MOTION":15.34456797,"ECCENTRICITY":0.00078422,"INCLINATION":51.8774,"RA_OF_ASC_NODE":170.5295,"ARG_OF_PERICENTER":153.6015,"MEAN_ANOMALY":75.8976,"EPHEMERIS_TYPE":0,"NORAD_CAT_ID":69765,"ELEMENT_SET_NO":999,"REV_AT_EPOCH":293,"BSTAR":-0.034926,"MEAN_MOTION_DOT":-0.01086615,"MEAN_MOTION_DDOT":0},{"OBJECT_NAME":"KUIPER-00569","OBJECT_ID":"2026-151D","EPOCH":"2026-07-16T10:05:34.338912","CLASSIFICATION_TYPE":"U","MEAN_MOTION":15.37675352,"ECCENTRICITY":0.0003566,"INCLINATION":51.8774,"RA_OF_ASC_NODE":174.4478,"ARG_OF_PERICENTER":139.8001,"MEAN_ANOMALY":220.3251,"EPHEMERIS_TYPE":0,"NORAD_CAT_ID":69766,"ELEMENT_SET_NO":999,"REV_AT_EPOCH":220,"BSTAR":0.0038488,"MEAN_MOTION_DOT":0.00147069,"MEAN_MOTION_DDOT":0}]}
